{
    "links": {
        "self": "http://www.neowsapp.com/rest/v1/neo/3879281?api_key=iIulBulltgU6a56xZRHN4H3l9WmuAYTsLGpBGhQ2"
    },
    "id": "3879281",
    "neo_reference_id": "3879281",
    "name": "(2019 UB2)",
    "designation": "2019 UB2",
    "nasa_jpl_url": "http://ssd.jpl.nasa.gov/sbdb.cgi?sstr=3879281",
    "absolute_magnitude_h": 25.9,
    "estimated_diameter": {
        "kilometers": {
            "estimated_diameter_min": 0.0175612318,
            "estimated_diameter_max": 0.0392681082
        },
        "meters": {
            "estimated_diameter_min": 17.561231848,
            "estimated_diameter_max": 39.2681081809
        },
        "miles": {
            "estimated_diameter_min": 0.0109120402,
            "estimated_diameter_max": 0.0244000636
        },
        "feet": {
            "estimated_diameter_min": 57.6155918963,
            "estimated_diameter_max": 128.8323800441
        }
    },
    "is_potentially_hazardous_asteroid": false,
    "close_approach_data": [
        {
            "close_approach_date": "2019-10-29",
            "close_approach_date_full": "2019-Oct-29 22:20",
            "epoch_date_close_approach": 1572387600000,
            "relative_velocity": {
                "kilometers_per_second": "8.3853543936",
                "kilometers_per_hour": "30187.2758169",
                "miles_per_hour": "18757.1992430066"
            },
            "miss_distance": {
                "astronomical": "0.0388226668",
                "lunar": "15.1020173852",
                "kilometers": "5807788.260999716",
                "miles": "3608792.2834634408"
            },
            "orbiting_body": "Earth"
        }
    ],
    "orbital_data": {
        "orbit_id": "5",
        "orbit_determination_date": "2019-11-04 04:55:56",
        "first_observation_date": "2019-10-20",
        "last_observation_date": "2019-11-04",
        "data_arc_in_days": 15,
        "observations_used": 28,
        "orbit_uncertainty": "8",
        "minimum_orbit_intersection": ".0167404",
        "jupiter_tisserand_invariant": "3.194",
        "epoch_osculation": "2458780.5",
        "eccentricity": ".5980610401384449",
        "semi_major_axis": "2.496387046184724",
        "inclination": "1.264838773811058",
        "ascending_node_longitude": "32.27286379192186",
        "orbital_period": "1440.67595358104",
        "perihelion_distance": "1.003395212755348",
        "perihelion_argument": "24.14440408669504",
        "aphelion_distance": "3.9893788796141",
        "perihelion_time": "2458802.139232057710",
        "mean_anomaly": "354.592730224023",
        "mean_motion": ".2498827020088452",
        "equinox": "J2000",
        "orbit_class": {
            "orbit_class_type": "APO",
            "orbit_class_description": "Near-Earth asteroid orbits which cross the Earth’s orbit similar to that of 1862 Apollo",
            "orbit_class_range": "a (semi-major axis) > 1.0 AU; q (perihelion) < 1.017 AU"
        }
    },
    "is_sentry_object": false
}